start=new Date('2022-06-14T00:00:00.000Z').valueOf();
sats=[{"COUNTRY_CODE":"US","ELEMENT_SET_NO":"999","TLE_LINE2":"2 46127  53.0549 304.0133 0001555  58.2170 301.8970 15.06409567101284","OBJECT_TYPE":"PAYLOAD","DECAY_DATE":null,"REF_FRAME":"TEME","EPHEMERIS_TYPE":"0","SITE":"AFETR","PERIOD":"95.592","MEAN_MOTION_DOT":"0.00003683","TIME_SYSTEM":"UTC","LAUNCH_DATE":"2020-08-18","MEAN_MOTION_DDOT":"0.0000000000000","OBJECT_ID":"2020-057L","INCLINATION":"53.0549","SEMIMAJOR_AXIS":"6925.319","NORAD_CAT_ID":"46127","FILE":"3495207","MEAN_ELEMENT_THEORY":"SGP4","GP_ID":"206075889","BSTAR":"0.00026595000000","CENTER_NAME":"EARTH","MEAN_MOTION":"15.06409567","REV_AT_EPOCH":"10128","ARG_OF_PERICENTER":"58.2170","CLASSIFICATION_TYPE":"U","ECCENTRICITY":"0.00015550","PERIAPSIS":"546.107","MEAN_ANOMALY":"301.8970","TLE_LINE1":"1 46127U 20057L   22164.76199091  .00003683  00000-0  26595-3 0  9991","RCS_SIZE":"LARGE","EPOCH":"2022-06-13T18:17:16.014624","RA_OF_ASC_NODE":"304.0133","APOAPSIS":"548.261","OBJECT_NAME":"STARLINK-1621"},{"REV_AT_EPOCH":"10087","ARG_OF_PERICENTER":"87.2999","CENTER_NAME":"EARTH","MEAN_MOTION":"15.06407754","GP_ID":"206056404","MEAN_ELEMENT_THEORY":"SGP4","BSTAR":"0.00031208000000","APOAPSIS":"548.179","OBJECT_NAME":"STARLINK-1622","EPOCH":"2022-06-13T14:10:27.842592","TLE_LINE1":"1 46128U 20057M   22164.59060003  .00004371  00000-0  31208-3 0  9995","RCS_SIZE":"LARGE","RA_OF_ASC_NODE":"284.7838","MEAN_ANOMALY":"272.8154","PERIAPSIS":"546.200","CLASSIFICATION_TYPE":"U","ECCENTRICITY":"0.00014290","SITE":"AFETR","EPHEMERIS_TYPE":"0","DECAY_DATE":null,"REF_FRAME":"TEME","OBJECT_TYPE":"PAYLOAD","TLE_LINE2":"2 46128  53.0529 284.7838 0001429  87.2999 272.8154 15.06407754100871","ELEMENT_SET_NO":"999","COUNTRY_CODE":"US","NORAD_CAT_ID":"46128","FILE":"3494620","SEMIMAJOR_AXIS":"6925.325","OBJECT_ID":"2020-057M","INCLINATION":"53.0529","MEAN_MOTION_DDOT":"0.0000000000000","LAUNCH_DATE":"2020-08-18","PERIOD":"95.592","TIME_SYSTEM":"UTC","MEAN_MOTION_DOT":"0.00004371"},{"SITE":"AFETR","EPHEMERIS_TYPE":"0","DECAY_DATE":null,"REF_FRAME":"TEME","TLE_LINE2":"2 46129  53.0541 284.3204 0001403  78.0723 282.0423 15.06408071101555","OBJECT_TYPE":"PAYLOAD","ELEMENT_SET_NO":"999","COUNTRY_CODE":"US","NORAD_CAT_ID":"46129","FILE":"3494709","SEMIMAJOR_AXIS":"6925.324","OBJECT_ID":"2020-057N","INCLINATION":"53.0541","MEAN_MOTION_DDOT":"0.0000000000000","LAUNCH_DATE":"2020-08-18","PERIOD":"95.592","TIME_SYSTEM":"UTC","MEAN_MOTION_DOT":"0.00002390","ARG_OF_PERICENTER":"78.0723","REV_AT_EPOCH":"10155","CENTER_NAME":"EARTH","MEAN_MOTION":"15.06408071","GP_ID":"206063403","MEAN_ELEMENT_THEORY":"SGP4","BSTAR":"0.00017927000000","APOAPSIS":"548.160","OBJECT_NAME":"STARLINK-1623","EPOCH":"2022-06-13T16:44:23.102304","RCS_SIZE":"LARGE","TLE_LINE1":"1 46129U 20057N   22164.69748961  .00002390  00000-0  17927-3 0  9994","RA_OF_ASC_NODE":"284.3204","PERIAPSIS":"546.217","MEAN_ANOMALY":"282.0423","CLASSIFICATION_TYPE":"U","ECCENTRICITY":"0.00014030"},{"APOAPSIS":"548.117","OBJECT_NAME":"STARLINK-1624","EPOCH":"2022-06-13T14:21:04.002336","TLE_LINE1":"1 46130U 20057P   22164.59796299  .00000654  00000-0  62803-4 0  9997","RCS_SIZE":"LARGE","RA_OF_ASC_NODE":"284.7481","PERIAPSIS":"546.235","MEAN_ANOMALY":"303.4301","CLASSIFICATION_TYPE":"U","ECCENTRICITY":"0.00013590","REV_AT_EPOCH":"10212","ARG_OF_PERICENTER":"56.6818","CENTER_NAME":"EARTH","MEAN_MOTION":"15.06412164","MEAN_ELEMENT_THEORY":"SGP4","GP_ID":"206057406","BSTAR":"0.00006280300000","NORAD_CAT_ID":"46130","FILE":"3494620","SEMIMAJOR_AXIS":"6925.311","OBJECT_ID":"2020-057P","INCLINATION":"53.0546","MEAN_MOTION_DDOT":"0.0000000000000","LAUNCH_DATE":"2020-08-18","PERIOD":"95.591","TIME_SYSTEM":"UTC","MEAN_MOTION_DOT":"0.00000654","SITE":"AFETR","EPHEMERIS_TYPE":"0","DECAY_DATE":null,"REF_FRAME":"TEME","TLE_LINE2":"2 46130  53.0546 284.7481 0001359  56.6818 303.4301 15.06412164102125","OBJECT_TYPE":"PAYLOAD","ELEMENT_SET_NO":"999","COUNTRY_CODE":"US"},{"RA_OF_ASC_NODE":"305.2924","TLE_LINE1":"1 46131U 20057Q   22164.47817895  .00000562  00000-0  56600-4 0  9997","RCS_SIZE":"LARGE","EPOCH":"2022-06-13T11:28:34.661280","OBJECT_NAME":"STARLINK-1625","APOAPSIS":"548.081","ECCENTRICITY":"0.00012580","CLASSIFICATION_TYPE":"U","MEAN_ANOMALY":"279.7527","PERIAPSIS":"546.339","ARG_OF_PERICENTER":"80.3604","REV_AT_EPOCH":"10183","BSTAR":"0.00005660000000","GP_ID":"206058156","MEAN_ELEMENT_THEORY":"SGP4","MEAN_MOTION":"15.06401083","CENTER_NAME":"EARTH","MEAN_MOTION_DDOT":"0.0000000000000","INCLINATION":"53.0550","OBJECT_ID":"2020-057Q","SEMIMAJOR_AXIS":"6925.345","FILE":"3494620","NORAD_CAT_ID":"46131","MEAN_MOTION_DOT":"0.00000562","TIME_SYSTEM":"UTC","PERIOD":"95.592","LAUNCH_DATE":"2020-08-18","REF_FRAME":"TEME","DECAY_DATE":null,"EPHEMERIS_TYPE":"0","SITE":"AFETR","COUNTRY_CODE":"US","ELEMENT_SET_NO":"999","OBJECT_TYPE":"PAYLOAD","TLE_LINE2":"2 46131  53.0550 305.2924 0001258  80.3604 279.7527 15.06401083101837"},{"CLASSIFICATION_TYPE":"U","ECCENTRICITY":"0.00019610","PERIAPSIS":"545.898","MEAN_ANOMALY":"290.7467","TLE_LINE1":"1 46132U 20057R   22164.71594110  .00022390  00000-0  15178-2 0  9993","RCS_SIZE":"LARGE","EPOCH":"2022-06-13T17:10:57.311040","RA_OF_ASC_NODE":"324.2356","APOAPSIS":"548.614","OBJECT_NAME":"STARLINK-1630","MEAN_ELEMENT_THEORY":"SGP4","GP_ID":"206063739","BSTAR":"0.00151780000000","CENTER_NAME":"EARTH","MEAN_MOTION":"15.06386188","REV_AT_EPOCH":"10099","ARG_OF_PERICENTER":"69.3732","PERIOD":"95.593","MEAN_MOTION_DOT":"0.00022390","TIME_SYSTEM":"UTC","LAUNCH_DATE":"2020-08-18","MEAN_MOTION_DDOT":"0.0000000000000","OBJECT_ID":"2020-057R","INCLINATION":"53.0550","SEMIMAJOR_AXIS":"6925.391","NORAD_CAT_ID":"46132","FILE":"3494744","COUNTRY_CODE":"US","ELEMENT_SET_NO":"999","TLE_LINE2":"2 46132  53.0550 324.2356 0001961  69.3732 290.7467 15.06386188100998","OBJECT_TYPE":"PAYLOAD","DECAY_DATE":null,"REF_FRAME":"TEME","EPHEMERIS_TYPE":"0","SITE":"AFETR"},{"SEMIMAJOR_AXIS":"6925.318","FILE":"3494722","NORAD_CAT_ID":"46133","MEAN_MOTION_DDOT":"0.0000000000000","INCLINATION":"53.0566","OBJECT_ID":"2020-057S","LAUNCH_DATE":"2020-08-18","MEAN_MOTION_DOT":"0.00002309","TIME_SYSTEM":"UTC","PERIOD":"95.591","EPHEMERIS_TYPE":"0","SITE":"AFETR","REF_FRAME":"TEME","DECAY_DATE":null,"ELEMENT_SET_NO":"999","TLE_LINE2":"2 46133  53.0566 283.9225 0001386  95.7555 264.3592 15.06410090101569","OBJECT_TYPE":"PAYLOAD","COUNTRY_CODE":"US","OBJECT_NAME":"STARLINK-1637","APOAPSIS":"548.142","RA_OF_ASC_NODE":"283.9225","TLE_LINE1":"1 46133U 20057S   22164.78225890  .00002309  00000-0  17381-3 0  9994","RCS_SIZE":"LARGE","EPOCH":"2022-06-13T18:46:27.168960","PERIAPSIS":"546.223","MEAN_ANOMALY":"264.3592","ECCENTRICITY":"0.00013860","CLASSIFICATION_TYPE":"U","REV_AT_EPOCH":"10156","ARG_OF_PERICENTER":"95.7555","MEAN_MOTION":"15.06410090","CENTER_NAME":"EARTH","BSTAR":"0.00017381000000","MEAN_ELEMENT_THEORY":"SGP4","GP_ID":"206063771"},{"OBJECT_NAME":"STARLINK-1638","APOAPSIS":"547.104","RA_OF_ASC_NODE":"285.0927","EPOCH":"2022-06-13T12:28:31.711872","RCS_SIZE":"LARGE","TLE_LINE1":"1 46134U 20057T   22164.51981148 -.00006588  00000-0 -41945-3 0  9999","MEAN_ANOMALY":"309.4778","PERIAPSIS":"545.024","ECCENTRICITY":"0.00015020","CLASSIFICATION_TYPE":"U","REV_AT_EPOCH":"10152","ARG_OF_PERICENTER":"50.6344","MEAN_MOTION":"15.06775151","CENTER_NAME":"EARTH","BSTAR":"-0.00041945000000","GP_ID":"206065254","MEAN_ELEMENT_THEORY":"SGP4","NORAD_CAT_ID":"46134","FILE":"3494788","SEMIMAJOR_AXIS":"6924.199","OBJECT_ID":"2020-057T","INCLINATION":"53.0560","MEAN_MOTION_DDOT":"0.0000000000000","LAUNCH_DATE":"2020-08-18","TIME_SYSTEM":"UTC","MEAN_MOTION_DOT":"-0.00006588","PERIOD":"95.568","SITE":"AFETR","EPHEMERIS_TYPE":"0","REF_FRAME":"TEME","DECAY_DATE":null,"TLE_LINE2":"2 46134  53.0560 285.0927 0001502  50.6344 309.4778 15.06775151101527","OBJECT_TYPE":"PAYLOAD","ELEMENT_SET_NO":"999","COUNTRY_CODE":"US"},{"ECCENTRICITY":"0.00016140","CLASSIFICATION_TYPE":"U","MEAN_ANOMALY":"287.4075","PERIAPSIS":"546.081","RA_OF_ASC_NODE":"284.7360","TLE_LINE1":"1 46135U 20057U   22164.60165887  .00001698  00000-0  13286-3 0  9996","RCS_SIZE":"LARGE","EPOCH":"2022-06-13T14:26:23.326368","OBJECT_NAME":"STARLINK-1639","APOAPSIS":"548.316","BSTAR":"0.00013286000000","MEAN_ELEMENT_THEORY":"SGP4","GP_ID":"206057657","MEAN_MOTION":"15.06404859","CENTER_NAME":"EARTH","ARG_OF_PERICENTER":"72.7090","REV_AT_EPOCH":"10087","MEAN_MOTION_DOT":"0.00001698","TIME_SYSTEM":"UTC","PERIOD":"95.592","LAUNCH_DATE":"2020-08-18","MEAN_MOTION_DDOT":"0.0000000000000","INCLINATION":"53.0553","OBJECT_ID":"2020-057U","SEMIMAJOR_AXIS":"6925.334","NORAD_CAT_ID":"46135","FILE":"3494620","COUNTRY_CODE":"US","ELEMENT_SET_NO":"999","OBJECT_TYPE":"PAYLOAD","TLE_LINE2":"2 46135  53.0553 284.7360 0001614  72.7090 287.4075 15.06404859100870","REF_FRAME":"TEME","DECAY_DATE":null,"EPHEMERIS_TYPE":"0","SITE":"AFETR"},{"GP_ID":"206064281","MEAN_ELEMENT_THEORY":"SGP4","BSTAR":"0.00287100000000","CENTER_NAME":"EARTH","MEAN_MOTION":"15.06748987","ARG_OF_PERICENTER":"76.9691","REV_AT_EPOCH":"10113","CLASSIFICATION_TYPE":"U","ECCENTRICITY":"0.00015530","MEAN_ANOMALY":"283.1471","PERIAPSIS":"545.069","EPOCH":"2022-06-13T17:11:43.202400","TLE_LINE1":"1 46136U 20057V   22164.71647225  .00043152  00000-0  28710-2 0  9998","RCS_SIZE":"LARGE","RA_OF_ASC_NODE":"314.2105","APOAPSIS":"547.220","OBJECT_NAME":"STARLINK-1643","COUNTRY_CODE":"US","OBJECT_TYPE":"PAYLOAD","TLE_LINE2":"2 46136  53.0554 314.2105 0001553  76.9691 283.1471 15.06748987101139","ELEMENT_SET_NO":"999","DECAY_DATE":null,"REF_FRAME":"TEME","SITE":"AFETR","EPHEMERIS_TYPE":"0","PERIOD":"95.570","TIME_SYSTEM":"UTC","MEAN_MOTION_DOT":"0.00043152","LAUNCH_DATE":"2020-08-18","OBJECT_ID":"2020-057V","INCLINATION":"53.0554","MEAN_MOTION_DDOT":"0.0000000000000","FILE":"3494722","NORAD_CAT_ID":"46136","SEMIMAJOR_AXIS":"6924.279"}];
